[{"OBJECT_NAME":"LUSAT (LO-19)","OBJECT_ID":"1990-005G","EPOCH":"2026-03-09T14:54:14.260896","MEAN_MOTION":14.34087969,"ECCENTRICITY":0.001234,"INCLINATION":98.8938,"RA_OF_ASC_NODE":87.6461,"ARG_OF_PERICENTER":134.6824,"MEAN_ANOMALY":225.5367,"EPHEMERIS_TYPE":0,"CLASSIFICATION_TYPE":"U","NORAD_CAT_ID":20442,"ELEMENT_SET_NO":999,"REV_AT_EPOCH":88812,"BSTAR":8.4338e-5,"MEAN_MOTION_DOT":1.89e-6,"MEAN_MOTION_DDOT":0},{"OBJECT_NAME":"CZ-6A DEB","OBJECT_ID":"2024-140ZJ","EPOCH":"2026-03-09T13:20:54.807360","MEAN_MOTION":14.47779968,"ECCENTRICITY":0.00585755,"INCLINATION":88.8901,"RA_OF_ASC_NODE":276.0156,"ARG_OF_PERICENTER":197.235,"MEAN_ANOMALY":162.6869,"EPHEMERIS_TYPE":0,"CLASSIFICATION_TYPE":"U","NORAD_CAT_ID":61452,"ELEMENT_SET_NO":999,"REV_AT_EPOCH":8050,"BSTAR":0.0015512553,"MEAN_MOTION_DOT":5.874e-5,"MEAN_MOTION_DDOT":0}]
